[{"OBJECT_NAME":"ONEWEB-0522","OBJECT_ID":"2022-138AD","EPOCH":"2026-03-09T17:55:10.899552","MEAN_MOTION":13.19725112,"ECCENTRICITY":0.00016062,"INCLINATION":87.924,"RA_OF_ASC_NODE":324.7616,"ARG_OF_PERICENTER":85.5442,"MEAN_ANOMALY":274.5874,"EPHEMERIS_TYPE":0,"CLASSIFICATION_TYPE":"U","NORAD_CAT_ID":54140,"ELEMENT_SET_NO":999,"REV_AT_EPOCH":16369,"BSTAR":-0.00050448879,"MEAN_MOTION_DOT":-1.89e-6,"MEAN_MOTION_DDOT":0},{"OBJECT_NAME":"COSMOS 1691 DEB","OBJECT_ID":"1985-094S","EPOCH":"2026-03-09T21:55:37.718400","MEAN_MOTION":13.13898461,"ECCENTRICITY":0.00353764,"INCLINATION":82.5538,"RA_OF_ASC_NODE":233.7095,"ARG_OF_PERICENTER":314.6673,"MEAN_ANOMALY":170.0595,"EPHEMERIS_TYPE":0,"CLASSIFICATION_TYPE":"U","NORAD_CAT_ID":17168,"ELEMENT_SET_NO":999,"REV_AT_EPOCH":89038,"BSTAR":0.0071438608,"MEAN_MOTION_DOT":2.646e-5,"MEAN_MOTION_DDOT":0}]
